#dP2019  9  3  0  0  0.00000000      96 __u+U ITR00 FIT  IAC
## 2069 172800.00000000   900.00000000 58729 0.0000000000000
+  113   C01C02C04C05C06C07C08C09C10C11C12C13C14C16C19C20C21
+        C22C23C24C25C26C27C28C29C30C32C33C34C36C37E01E02E03
+        E04E05E07E08E09E11E12E13E14E15E18E19E21E24E25E26E27
+        E30E31E33E36G01G02G03G04G05G06G07G08G09G10G11G12G13
+        G14G15G16G17G18G19G20G21G22G23G24G25G26G27G28G29G30
+        G31G32J01J02J03J07R01R02R03R05R06R07R08R09R11R12R13
+        R14R15R16R17R18R19R20R21R22R23R24  0  0  0  0  0  0
++        13 14 13 13  8  9  8  8  8  8  8  8  7  8  8  7  8
++         8  8  9  8  9  8  8  8  8  8  8  8 10  9  5  6  5
++         5  5  5  5  5  5  5  5  5  5  5  5  5  5  5  5  5
++         5  5  5  5  3  3  3  4  3  3  3  3  3  3  3  3  3
++         3  3  3  3  3  3  3  4  3  3  3  3  4  4  3  3  3
++         3  3  9  8  8 13  6  5  5  5 11  5  5  6  5  5  6
++         6  5  6  5  6  6  6  5  5  5  6  0  0  0  0  0  0
%c M  cc GPS ccc cccc cccc cccc cccc ccccc ccccc ccccc ccccc
%c cc cc ccc ccc cccc cccc cccc cccc ccccc ccccc ccccc ccccc
%f  0.0000000  0.000000000  0.00000000000  0.000000000000000
%f  0.0000000  0.000000000  0.00000000000  0.000000000000000
%i    0    0    0    0      0      0      0      0         0
%i    0    0    0    0      0      0      0      0         0
/* INFORMATION & ANALYSIS CENTER (IAC) OF MCC   (RAPID DATA)
/* S/V CLOCKS ARE ALIGNED TO GPS & GLONASS TIME RESPECTIVELY
/* USING THE BROADCAST EPHEMERIS                            
/* PCV:IGS14_2062 OL/AL:FES2004  NONE     YN ORB:CoN CLK:CoN
*  2019 09 03 23 15  0.00000000
PC01 -32265.202351  27109.442665    951.358281    243.300303
PC02   4276.509047  41956.610206   -444.899104 999999.999999
PC04 -39606.459727  14419.043810    658.971613   -387.899459
PC05  21884.126526  36012.791279   -690.297566   -163.521375
PC06  -9062.563423  23182.316310 -33638.642794    433.438532
PC07 -22739.055525  29911.751984  18796.046193   -107.510018
PC08 -11676.140143  37428.208539  15993.972929     -1.320269
PC09   5090.182258  29695.623485 -29125.671443    -59.768675
PC10 -10231.556276  30502.927877  27215.616234   -143.040062
PC11    477.835650 -20850.222966 -18456.628457    176.215678
PC12  19005.960806   4212.482818 -19969.126877   -240.277197
PC13  -3298.328870  42100.766351   2653.180804   -916.904580
PC14  19804.834296 -12559.805011  15156.514877    506.291367
PC16  -5595.021325  24552.894307 -33769.750129   -876.571820
PC19   1289.918882  15885.446582 -22884.675431    189.070904
PC20 -18457.906167  13160.451911 -16238.826207    -29.667121
PC21  27806.757284  -2493.440216   -226.934095    330.064819
PC22  20604.713712   9448.603599 -16295.479620    -61.299796
PC23 -10777.890385 -13450.776085 -21934.388445   -935.323157
PC24  15596.109102 -22253.777947   6321.342159   -911.981558
PC25   2562.754102 -25368.755709 -11323.067669   -336.643251
PC26  18430.841580  -7202.424613  19669.029557    373.969401
PC27 -19302.425315  -4175.379661  19705.687022    183.570244
PC28 -18382.028354 -20215.279069   5636.501372    177.467640
PC29   7681.847922  24163.510355  11653.250546    113.543207
PC30  -8550.490443  14480.519208  22265.608633    186.540661
PC32 -27770.171975   2679.504560    243.798566   -917.331798
PC33  -1258.382376 -15932.689405  22879.860510   -358.094077
PC34   8394.630947 -14734.709594 -22170.654030    -48.892526
PC36  -3238.570752  25344.009969  11238.724272   -787.480674
PC37 -18509.937425   6275.541406 -19891.135997 999999.999999
PE01  -2178.502343  20628.781770  21119.611439   -682.539215
PE02   2126.076868 -20601.195516 -21140.736124     77.145818
PE03  -8876.943607 -18737.516226  21120.495085   -206.887433
PE04  25440.168198  13523.165745  -6794.814841   -358.175767
PE05  13024.185361 -13012.021017  23182.622598   -451.722036
PE07 -27187.918581   -291.196420 -11677.084663   -259.261904
PE08 -25609.568132 -13223.454809   6708.999778   6297.219697
PE09  27169.513491    114.914107  11776.775006   6327.455977
PE11  16164.952415  -2706.569975 -24658.061075   5603.787792
PE12  15440.855391  18993.486941 -16638.999448   6215.794383
PE13 -16103.186981   2602.282997  24699.802468    392.373973
PE14 -16059.045472   4339.340473  16704.999006   -706.517100
PE15 -15581.274264 -18624.579784  16925.310714    896.821047
PE18  17740.622817 -11481.768140 -24746.454251   -800.902074
PE19   6755.829638  18518.727506 -22076.687881     -4.157621
PE21 -18889.850446  22031.349802   5807.743909   -552.939012
PE24  24597.100064 -10408.573482  12746.213326   5889.594099
PE25  18960.511120 -22006.308803  -5708.174211   1689.979382
PE26  -7401.472183  22429.927640  17846.180827   4148.129379
PE27 -24504.677469  10423.202541 -12909.924306    394.642300
PE30 -15788.874710  -7309.903601 -23947.728161   4575.607268
PE31  15732.314148   7270.987787  24010.853417   -468.006550
PE33   5923.866133  28991.468624    791.068034   -469.888568
PE36   7188.218504 -22357.691472 -18015.548855    666.568283
PG01 -13393.114713  15105.821336  16887.872105   -117.285066
PG02  14234.924293   7147.986157 -20661.114387   -297.357075
PG03 -22201.308952  13503.384463  -5315.454108     -7.424866
PG04 -23204.331788 -13519.193991    358.972743    128.172181
PG05  23121.175067   -136.800411 -13385.132282     -1.124852
PG06   6983.733953  21460.485156 -13941.616562    -45.900461
PG07  -6203.452901  25201.196037  -3984.188308    -98.911147
PG08 -20455.972185   -400.962959  17078.439499     -5.168532
PG09  -2883.400991  16231.368945 -20866.188951    -22.433183
PG10  -3395.051580 -14965.589462  21724.014382    -39.585814
PG11 -12289.954826  11792.274258  19911.609488   -517.108688
PG12  24407.379579 -10059.230548  -2157.008093    207.563077
PG13  21786.460792  10848.703950  10598.495255    -46.254345
PG14 -18475.664415 -19034.119006   2997.694493    -63.195082
PG15  20477.406745  -2197.274430  16699.077807   -289.514849
PG16 -22519.704602  -2695.500771 -14359.558147    -70.880478
PG17  12903.374461  20566.161395  11277.379239    118.947369
PG18 -14945.159586   6441.799366  20465.972370     82.997803
PG19  17235.050221  19666.068724   4238.132141   -272.074231
PG20   6150.334854 -18745.231558  17597.809903    526.734971
PG21    904.117041 -26641.595101    884.141107   -124.950091
PG22 -24293.928088  10288.511059   2817.295052   -751.147279
PG23 -14836.820434   7577.516947 -20421.018382   -168.777765
PG24  14187.612385 -12772.175573  18166.168195     -1.672792
PG25  15208.698434 -16800.583063 -13854.025032    -10.644827
PG26 -15137.407323  -8792.299977 -20041.730606     30.668022
PG27 -23097.318441 -11554.043001   6731.471860    -44.335270
PG28   2279.254383  15021.090277  22399.932223    763.168015
PG29   6167.546869 -13791.253292 -21878.511215    107.405872
PG30    877.374283  25581.051976   6733.663095    -33.280308
PG31  -8003.632602 -19858.774249 -15426.778399     12.815017
PG32 -13881.718926 -19882.762840  11041.822863     43.897060
PJ01 -32495.571421  18687.129630 -14569.506477   -251.846764
PJ02 -26894.298361  31746.411177  -2256.119433     -3.407829
PJ03 -26316.816546  22107.808272  29477.433771     -1.399795
PJ07 -25361.017834  33681.015870    -47.689174     -0.007245
PR01  19042.581990   8582.937081 -14652.794786     49.180501
PR02  24905.425764   -122.199814   5419.670987    386.387396
PR03  14234.125475  -8031.831538  19605.983798      1.005818
PR05 -20698.493770  -7924.898624  12653.534772     35.050203
PR06 -24728.014645   1128.564220  -6221.725958    161.250846
PR07 -13840.663267   8145.323552 -19797.807723    -26.077808
PR08   4395.720576  11161.372756 -22459.288981     15.834999
PR09 -17153.740957  11639.173065 -14795.271160     88.788439
PR11  -4118.772877  19269.037223  16188.804090    -78.185789
PR12   8170.438465   7304.044783  23068.120864     58.511538
PR13  16531.807702  -9924.266264  16695.742571    -27.942127
PR14  15124.878417 -20540.631012    761.401778     42.621855
PR15   4975.377276 -19592.370501 -15533.591135    103.809811
PR16  -8660.549259  -6949.578360 -22976.437785      5.042256
PR17   4297.793888 -13819.398733 -20989.299292    257.315118
PR18  -6197.442217 -23234.820088  -8571.256529      6.196518
PR19 -12726.412372 -20476.182137   8311.262408    -51.897994
PR20 -12426.929231  -4258.391671  21874.945355   -389.392369
PR21  -3769.024353  14461.161013  20677.537015    -70.163154
PR22   7621.849030  23575.299695   5812.308121    -36.093416
PR23  14014.264578  16532.761683 -13470.524210    251.574534
PR24  11923.419872   1889.123199 -22499.640182   -184.349893
EOF
